sat06180
1 06180U 72069B   20046.70959891  .00000176  00000-0  29816-4 0  9993
2 06180  89.9494 218.1520 0040503   3.5947 356.5551 14.65045771488256
